NORAD_CAT_ID,OBJECT_NAME,OBJECT_TYPE,EPOCH,MEAN_MOTION,ECCENTRICITY,INCLINATION,RA_OF_ASC_NODE,ARG_OF_PERICENTER,MEAN_ANOMALY,BSTAR,MEAN_MOTION_DOT,MEAN_MOTION_DDOT,TLE_LINE0,TLE_LINE1,TLE_LINE2,SEMIMAJOR_AXIS,PERIOD,APOGEE,PERIGEE,DECAYED
56781.0,STARLINK-5989,PAYLOAD,2024-05-05 01:12:10,14.98321472,0.0003058,70.0,243.014,267.7948,92.2861,-7.9381e-05,-1.04e-05,0.0,0 STARLINK-5989,1 56781U 23078Q   24126.05012557 -.00001040  00000-0 -79381-4 0  9996,2 56781  70.0000 243.0140 0003058 267.7948  92.2861 14.98321472 52038,6950.219,96.108,574.21,569.959,0.0
56781.0,STARLINK-5989,PAYLOAD,2024-05-05 12:25:06,14.98330329,0.0003004,70.0003,241.836,267.6343,92.4472,-7.9659e-05,-1.043e-05,0.0,0 STARLINK-5989,1 56781U 23078Q   24126.51744122 -.00001043  00000-0 -79659-4 0  9998,2 56781  70.0003 241.8360 0003004 267.6343  92.4472 14.98330329 52109,6950.192,96.107,574.145,569.969,0.0
56781.0,STARLINK-5989,PAYLOAD,2024-05-05 14:01:14,14.98332049,0.000307,70.0002,241.6677,267.3363,92.7445,-9.5928e-05,-1.237e-05,0.0,0 STARLINK-5989,1 56781U 23078Q   24126.58420061 -.00001237  00000-0 -95928-4 0  9990,2 56781  70.0002 241.6677 0003070 267.3363  92.7445 14.98332049 51854,6950.187,96.107,574.185,569.918,0.0
56781.0,STARLINK-5989,PAYLOAD,2024-05-05 15:37:22,14.98334932,0.0003063,70.0001,241.4994,267.8648,92.216,-6.6147e-05,-8.82e-06,0.0,0 STARLINK-5989,1 56781U 23078Q   24126.65095778 -.00000882  00000-0 -66147-4 0  9997,2 56781  70.0001 241.4994 0003063 267.8648  92.2160 14.98334932 51869,6950.178,96.107,574.171,569.914,0.0
56781.0,STARLINK-5989,PAYLOAD,2024-05-06 12:27:07,14.98323721,0.0002955,70.0002,239.3101,269.4207,90.6613,0.0002226,2.564e-05,0.0,0 STARLINK-5989,1 56781U 23078Q   24127.51883819  .00002564  00000-0  22260-3 0  9998,2 56781  70.0002 239.3101 0002955 269.4207  90.6613 14.98323721 52257,6950.212,96.107,574.131,570.024,0.0
56781.0,STARLINK-5989,PAYLOAD,2024-05-06 14:03:15,14.98329418,0.0002904,70.0002,239.1422,269.5603,90.5223,0.00022471,2.589e-05,0.0,0 STARLINK-5989,1 56781U 23078Q   24127.58559472  .00002589  00000-0  22471-3 0  9991,2 56781  70.0002 239.1422 0002904 269.5603  90.5223 14.98329418 52004,6950.195,96.107,574.078,570.041,0.0
56781.0,STARLINK-5989,PAYLOAD,2024-05-06 17:15:31,14.98331163,0.0002936,70.0002,238.8057,269.536,90.5463,0.00024361,2.815e-05,0.0,0 STARLINK-5989,1 56781U 23078Q   24127.71911309  .00002815  00000-0  24361-3 0  9999,2 56781  70.0002 238.8057 0002936 269.5360  90.5463 14.98331163 52285,6950.189,96.107,574.095,570.014,0.0
56781.0,STARLINK-5989,PAYLOAD,2024-05-07 01:16:12,14.98326046,0.000262,70.0025,237.9652,290.527,69.5607,0.00015191,1.72e-05,0.0,0 STARLINK-5989,1 56781U 23078Q   24128.05292114  .00001720  00000-0  15191-3 0  9998,2 56781  70.0025 237.9652 0002620 290.5270  69.5607 14.98326046 52331,6950.205,96.107,573.891,570.249,0.0
56781.0,STARLINK-5989,PAYLOAD,2024-05-07 14:05:16,14.98333007,0.0002882,70.0003,236.6179,268.7391,91.3438,5.7306e-06,-2.5e-07,0.0,0 STARLINK-5989,1 56781U 23078Q   24128.58699871 -.00000025  00000-0  57306-5 0  9991,2 56781  70.0003 236.6179 0002882 268.7391  91.3438 14.98333007 52158,6950.184,96.107,574.052,570.046,0.0
56781.0,STARLINK-5989,PAYLOAD,2024-05-07 17:17:32,14.98336208,0.0002758,70.0002,236.281,263.5988,96.4857,5.285e-07,-8.7e-07,0.0,0 STARLINK-5989,1 56781U 23078Q   24128.72051613 -.00000087  00000-0  52850-6 0  9991,2 56781  70.0002 236.2810 0002758 263.5988  96.4857 14.98336208 52430,6950.174,96.107,573.956,570.122,0.0
56781.0,STARLINK-5989,PAYLOAD,2024-05-08 14:07:17,14.98338536,0.0002908,70.0006,234.0943,267.5487,92.5339,9.0692e-06,1.5e-07,0.0,0 STARLINK-5989,1 56781U 23078Q   24129.58839179  .00000015  00000-0  90692-5 0  9992,2 56781  70.0006 234.0943 0002908 267.5487  92.5339 14.98338536 52306,6950.166,96.106,574.053,570.01,0.0
56781.0,STARLINK-5989,PAYLOAD,2024-05-08 17:19:32,14.98340393,0.0002872,70.0007,233.7575,268.2208,91.8622,1.8522e-05,1.28e-06,0.0,0 STARLINK-5989,1 56781U 23078Q   24129.72190972  .00000128  00000-0  18522-4 0  9995,2 56781  70.0007 233.7575 0002872 268.2208  91.8622 14.98340393 52584,6950.161,96.106,574.022,570.03,0.0
56781.0,STARLINK-5989,PAYLOAD,2024-05-09 12:33:09,14.98332417,0.0002815,70.0009,231.7374,270.005,90.0786,8.0948e-05,8.73e-06,0.0,0 STARLINK-5989,1 56781U 23078Q   24130.52303043  .00000873  00000-0  80948-4 0  9998,2 56781  70.0009 231.7374 0002815 270.0050  90.0786 14.98332417 52708,6950.185,96.107,574.007,570.094,0.0
56781.0,STARLINK-5989,PAYLOAD,2024-05-09 14:09:17,14.98332893,0.0002849,70.001,231.5692,269.5177,90.5656,7.5337e-05,8.06e-06,0.0,0 STARLINK-5989,1 56781U 23078Q   24130.58979006  .00000806  00000-0  75337-4 0  9994,2 56781  70.0010 231.5692 0002849 269.5177  90.5656 14.98332893 52452,6950.184,96.107,574.029,570.069,0.0
56781.0,STARLINK-5989,PAYLOAD,2024-05-09 15:45:25,14.98333709,0.0002746,70.0009,231.4009,266.0246,94.0599,8.4765e-05,9.19e-06,0.0,0 STARLINK-5989,1 56781U 23078Q   24130.65654903  .00000919  00000-0  84765-4 0  9998,2 56781  70.0009 231.4009 0002746 266.0246  94.0599 14.98333709 52469,6950.181,96.107,573.955,570.138,0.0
56781.0,STARLINK-5989,PAYLOAD,2024-05-10 12:35:12,14.98320438,0.0002875,70.0007,229.2128,267.9533,92.1297,-0.000169,-2.108e-05,0.0,0 STARLINK-5989,1 56781U 23078Q   24131.52444682 -.00002108  00000-0 -16900-3 0  9995,2 56781  70.0007 229.2128 0002875 267.9533  92.1297 14.98320438 52858,6950.222,96.108,574.086,570.089,0.0
56781.0,STARLINK-5989,PAYLOAD,2024-05-10 15:47:28,14.98320348,0.0003107,70.0002,228.8748,268.1503,91.93,-0.00014022,-1.765e-05,0.0,0 STARLINK-5989,1 56781U 23078Q   24131.65796637 -.00001765  00000-0 -14022-3 0  9990,2 56781  70.0002 228.8748 0003107 268.1503  91.9300 14.98320348 52611,6950.223,96.108,574.247,569.928,0.0
56781.0,STARLINK-5989,PAYLOAD,2024-05-11 12:37:06,14.98402059,0.0003143,69.9998,226.6871,273.7878,86.2922,0.00069472,8.221e-05,0.0,0 STARLINK-5989,1 56781U 23078Q   24132.52576459  .00008221  00000-0  69472-3 0  9996,2 56781  69.9998 226.6871 0003143 273.7878  86.2922 14.98402059 53003,6949.97,96.102,574.019,569.651,0.0
56781.0,STARLINK-5989,PAYLOAD,2024-05-11 15:49:27,14.9831872,0.0002269,70.0032,226.3526,251.7469,108.3443,-0.00013022,-1.646e-05,0.0,0 STARLINK-5989,1 56781U 23078Q   24132.65934964 -.00001646  00000-0 -13022-3 0  9995,2 56781  70.0032 226.3526 0002269 251.7469 108.3443 14.98318720 53026,6950.228,96.108,573.67,570.516,0.0
56781.0,STARLINK-5989,PAYLOAD,2024-05-11 23:50:09,14.98304309,0.0002399,70.0011,225.509,290.4142,69.6759,-0.00040646,-4.936e-05,0.0,0 STARLINK-5989,1 56781U 23078Q   24132.99317116 -.00004936  00000-0 -40646-3 0  9993,2 56781  70.0011 225.5090 0002399 290.4142  69.6759 14.98304309 53074,6950.272,96.109,573.805,570.47,0.0
56781.0,STARLINK-5989,PAYLOAD,2024-05-12 12:39:19,14.98253076,0.0002956,70.0002,224.162,271.2518,88.8302,-0.00064374,-7.75e-05,0.0,0 STARLINK-5989,1 56781U 23078Q   24133.52730641 -.00007750  00000-0 -64374-3 0  9996,2 56781  70.0002 224.1620 0002956 271.2518  88.8302 14.98253076 53151,6950.431,96.112,574.35,570.241,0.0
56781.0,STARLINK-5989,PAYLOAD,2024-05-12 14:15:27,14.98251641,0.0002856,70.0003,223.9936,270.0862,89.9969,-0.00064092,-7.716e-05,0.0,0 STARLINK-5989,1 56781U 23078Q   24133.59407034 -.00007716  00000-0 -64092-3 0  9999,2 56781  70.0003 223.9936 0002856 270.0862  89.9969 14.98251641 52906,6950.435,96.112,574.285,570.315,0.0
56781.0,STARLINK-5989,PAYLOAD,2024-05-12 15:51:34,14.98273023,0.0002903,70.0007,223.8263,266.8228,93.2598,-0.00035495,-4.319e-05,0.0,0 STARLINK-5989,1 56781U 23078Q   24133.66081104 -.00004319  00000-0 -35495-3 0  9994,2 56781  70.0007 223.8263 0002903 266.8228  93.2598 14.98273023 53178,6950.369,96.111,574.252,570.216,0.0
56781.0,STARLINK-5989,PAYLOAD,2024-05-12 23:52:11,14.98318464,0.0003259,70.0007,222.9838,272.076,88.0025,-8.0427e-07,-1.03e-06,0.0,0 STARLINK-5989,1 56781U 23078Q   24133.99457889 -.00000103  00000-0 -80427-6 0  9992,2 56781  70.0007 222.9838 0003259 272.0760  88.0025 14.98318464 53223,6950.229,96.108,574.359,569.828,0.0
56781.0,STARLINK-5989,PAYLOAD,2024-05-13 12:41:14,14.98365014,0.0003187,69.9999,221.6379,270.9583,89.121,-0.00047106,-5.714e-05,0.0,0 STARLINK-5989,1 56781U 23078Q   24134.52864161 -.00005714  00000-0 -47106-3 0  9994,2 56781  69.9999 221.6379 0003187 270.9583  89.1210 14.98365014 53306,6950.085,96.105,574.165,569.735,0.0
56781.0,STARLINK-5989,PAYLOAD,2024-05-14 12:43:14,14.98318846,0.0002966,70.0001,219.1124,272.2336,87.8483,0.00097554,0.00011563,0.0,0 STARLINK-5989,1 56781U 23078Q   24135.53003405  .00011563  00000-0  97554-3 0  9991,2 56781  70.0001 219.1124 0002966 272.2336  87.8483 14.98318846 53452,6950.227,96.108,574.154,570.031,0.0
56781.0,STARLINK-5989,PAYLOAD,2024-05-14 22:20:03,14.98323926,0.0003404,69.999,218.1014,277.4931,82.5841,0.00078585,9.295e-05,0.0,0 STARLINK-5989,1 56781U 23078Q   24135.93059693  .00009295  00000-0  78585-3 0  9997,2 56781  69.9990 218.1014 0003404 277.4931  82.5841 14.98323926 53252,6950.212,96.107,574.443,569.711,0.0
56781.0,STARLINK-5989,PAYLOAD,2024-05-15 12:45:16,14.98344155,0.0002733,70.0008,216.5888,264.6271,95.4576,-4.1357e-05,-5.87e-06,0.0,0 STARLINK-5989,1 56781U 23078Q   24136.53144001 -.00000587  00000-0 -41357-4 0  9997,2 56781  70.0008 216.5888 0002733 264.6271  95.4576 14.98344155 53609,6950.149,96.106,573.914,570.115,0.0
56781.0,STARLINK-5989,PAYLOAD,2024-05-15 14:21:23,14.98350302,0.0003312,69.9994,216.416,283.5698,76.5092,5.4554e-05,5.58e-06,0.0,0 STARLINK-5989,1 56781U 23078Q   24136.59819323  .00000558  00000-0  54554-4 0  9998,2 56781  69.9994 216.4160 0003312 283.5698  76.5092 14.98350302 53355,6950.13,96.106,574.297,569.693,0.0
56781.0,STARLINK-5989,PAYLOAD,2024-05-15 22:22:04,14.98349829,0.0002922,70.0005,215.5752,278.7147,81.3681,-7.5542e-05,-9.95e-06,0.0,0 STARLINK-5989,1 56781U 23078Q   24136.93199225 -.00000995  00000-0 -75542-4 0  9995,2 56781  70.0005 215.5752 0002922 278.7147  81.3681 14.98349829 53405,6950.132,96.106,574.027,569.966,0.0
